[{"OBJECT_NAME":"STARLINK-2642","OBJECT_ID":"2021-040K","EPOCH":"2026-03-10T00:00:02.999808","MEAN_MOTION":15.26483116,"ECCENTRICITY":0.00011873,"INCLINATION":53.1432,"RA_OF_ASC_NODE":189.485,"ARG_OF_PERICENTER":75.2668,"MEAN_ANOMALY":286.1269,"EPHEMERIS_TYPE":0,"CLASSIFICATION_TYPE":"U","NORAD_CAT_ID":48437,"ELEMENT_SET_NO":999,"REV_AT_EPOCH":574,"BSTAR":0.059854525,"MEAN_MOTION_DOT":0.01729147,"MEAN_MOTION_DDOT":0},{"OBJECT_NAME":"JILIN-1 GAOFEN 03D52","OBJECT_ID":"2022-155E","EPOCH":"2026-03-09T23:35:25.140768","MEAN_MOTION":15.51754005,"ECCENTRICITY":0.00041872,"INCLINATION":97.6041,"RA_OF_ASC_NODE":205.6865,"ARG_OF_PERICENTER":23.2196,"MEAN_ANOMALY":336.9244,"EPHEMERIS_TYPE":0,"CLASSIFICATION_TYPE":"U","NORAD_CAT_ID":54255,"ELEMENT_SET_NO":999,"REV_AT_EPOCH":18428,"BSTAR":0.00078662811,"MEAN_MOTION_DOT":0.00047033,"MEAN_MOTION_DDOT":0}]
